CCSDS_OMM_VERS = 2.0
CREATION_DATE  = 
ORIGINATOR     = 

OBJECT_NAME    = SL-16 R/B
OBJECT_ID      = 1993-016B
CENTER_NAME    = EARTH
REF_FRAME      = TEME
TIME_SYSTEM    = UTC
MEAN_ELEMENT_THEORY = SGP/SGP4

EPOCH          = 2025-12-30T10:41:16.174176
MEAN_MOTION    = 14.15295271
ECCENTRICITY   = .00080524
INCLINATION    = 71.0087
RA_OF_ASC_NODE = 0.6155
ARG_OF_PERICENTER = 61.9475
MEAN_ANOMALY   = 298.2461

EPHEMERIS_TYPE = 0
CLASSIFICATION_TYPE = U
NORAD_CAT_ID   = 22566
ELEMENT_SET_NO = 999
REV_AT_EPOCH   = 69237
BSTAR          = .69173359E-4
MEAN_MOTION_DOT = .87E-6
MEAN_MOTION_DDOT = 0

CCSDS_OMM_VERS = 2.0
CREATION_DATE  = 
ORIGINATOR     = 

OBJECT_NAME    = COSMOS 2242
OBJECT_ID      = 1993-024A
CENTER_NAME    = EARTH
REF_FRAME      = TEME
TIME_SYSTEM    = UTC
MEAN_ELEMENT_THEORY = SGP/SGP4

EPOCH          = 2025-12-30T10:13:21.537408
MEAN_MOTION    = 14.96189752
ECCENTRICITY   = .00164257
INCLINATION    = 82.5192
RA_OF_ASC_NODE = 332.9389
ARG_OF_PERICENTER = 172.0697
MEAN_ANOMALY   = 188.0788

EPHEMERIS_TYPE = 0
CLASSIFICATION_TYPE = U
NORAD_CAT_ID   = 22626
ELEMENT_SET_NO = 999
REV_AT_EPOCH   = 77003
BSTAR          = .30219103E-3
MEAN_MOTION_DOT = .3439E-4
MEAN_MOTION_DDOT = 0

CCSDS_OMM_VERS = 2.0
CREATION_DATE  = 
ORIGINATOR     = 

OBJECT_NAME    = SL-16 R/B
OBJECT_ID      = 1993-059B
CENTER_NAME    = EARTH
REF_FRAME      = TEME
TIME_SYSTEM    = UTC
MEAN_ELEMENT_THEORY = SGP/SGP4

EPOCH          = 2025-12-30T14:08:40.420608
MEAN_MOTION    = 14.17219032
ECCENTRICITY   = .00189196
INCLINATION    = 70.9897
RA_OF_ASC_NODE = 156.8460
ARG_OF_PERICENTER = 310.4961
MEAN_ANOMALY   = 49.4513

EPHEMERIS_TYPE = 0
CLASSIFICATION_TYPE = U
NORAD_CAT_ID   = 22803
ELEMENT_SET_NO = 999
REV_AT_EPOCH   = 66974
BSTAR          = .82687215E-4
MEAN_MOTION_DOT = .119E-5
MEAN_MOTION_DDOT = 0

CCSDS_OMM_VERS = 2.0
CREATION_DATE  = 
ORIGINATOR     = 

OBJECT_NAME    = ARIANE 40 R/B
OBJECT_ID      = 1993-061H
CENTER_NAME    = EARTH
REF_FRAME      = TEME
TIME_SYSTEM    = UTC
MEAN_ELEMENT_THEORY = SGP/SGP4

EPOCH          = 2025-12-30T15:14:43.534176
MEAN_MOTION    = 14.32814821
ECCENTRICITY   = .00116873
INCLINATION    = 98.5052
RA_OF_ASC_NODE = 69.8376
ARG_OF_PERICENTER = 125.9882
MEAN_ANOMALY   = 234.2388

EPHEMERIS_TYPE = 0
CLASSIFICATION_TYPE = U
NORAD_CAT_ID   = 22830
ELEMENT_SET_NO = 999
REV_AT_EPOCH   = 68421
BSTAR          = .18819593E-3
MEAN_MOTION_DOT = .47E-5
MEAN_MOTION_DDOT = 0

CCSDS_OMM_VERS = 2.0
CREATION_DATE  = 
ORIGINATOR     = 

OBJECT_NAME    = COSMOS 2278
OBJECT_ID      = 1994-023A
CENTER_NAME    = EARTH
REF_FRAME      = TEME
TIME_SYSTEM    = UTC
MEAN_ELEMENT_THEORY = SGP/SGP4

EPOCH          = 2025-12-30T13:41:58.406496
MEAN_MOTION    = 14.14351542
ECCENTRICITY   = .00075866
INCLINATION    = 71.0539
RA_OF_ASC_NODE = 319.7041
ARG_OF_PERICENTER = 147.1947
MEAN_ANOMALY   = 212.9648

EPHEMERIS_TYPE = 0
CLASSIFICATION_TYPE = U
NORAD_CAT_ID   = 23087
ELEMENT_SET_NO = 999
REV_AT_EPOCH   = 63503
BSTAR          = .2089829E-3
MEAN_MOTION_DOT = .353E-5
MEAN_MOTION_DDOT = 0

CCSDS_OMM_VERS = 2.0
CREATION_DATE  = 
ORIGINATOR     = 

OBJECT_NAME    = SL-16 R/B
OBJECT_ID      = 1994-023B
CENTER_NAME    = EARTH
REF_FRAME      = TEME
TIME_SYSTEM    = UTC
MEAN_ELEMENT_THEORY = SGP/SGP4

EPOCH          = 2025-12-30T15:34:07.008672
MEAN_MOTION    = 14.14998563
ECCENTRICITY   = .00023508
INCLINATION    = 70.9971
RA_OF_ASC_NODE = 215.8769
ARG_OF_PERICENTER = 358.9834
MEAN_ANOMALY   = 1.1284

EPHEMERIS_TYPE = 0
CLASSIFICATION_TYPE = U
NORAD_CAT_ID   = 23088
ELEMENT_SET_NO = 999
REV_AT_EPOCH   = 63632
BSTAR          = .25366343E-4
MEAN_MOTION_DOT = .1E-7
MEAN_MOTION_DDOT = 0

CCSDS_OMM_VERS = 2.0
CREATION_DATE  = 
ORIGINATOR     = 

OBJECT_NAME    = SL-16 R/B
OBJECT_ID      = 1994-074B
CENTER_NAME    = EARTH
REF_FRAME      = TEME
TIME_SYSTEM    = UTC
MEAN_ELEMENT_THEORY = SGP/SGP4

EPOCH          = 2025-12-30T14:40:10.545888
MEAN_MOTION    = 14.79312543
ECCENTRICITY   = .00080597
INCLINATION    = 97.7186
RA_OF_ASC_NODE = 33.2039
ARG_OF_PERICENTER = 87.3102
MEAN_ANOMALY   = 35.2579

EPHEMERIS_TYPE = 0
CLASSIFICATION_TYPE = U
NORAD_CAT_ID   = 23343
ELEMENT_SET_NO = 999
REV_AT_EPOCH   = 67703
BSTAR          = .12144429E-3
MEAN_MOTION_DOT = .855E-5
MEAN_MOTION_DDOT = 0

CCSDS_OMM_VERS = 2.0
CREATION_DATE  = 
ORIGINATOR     = 

OBJECT_NAME    = SL-16 R/B
OBJECT_ID      = 1994-077B
CENTER_NAME    = EARTH
REF_FRAME      = TEME
TIME_SYSTEM    = UTC
MEAN_ELEMENT_THEORY = SGP/SGP4

EPOCH          = 2025-12-30T14:04:39.506304
MEAN_MOTION    = 14.15550631
ECCENTRICITY   = .00050322
INCLINATION    = 70.9826
RA_OF_ASC_NODE = 137.8691
ARG_OF_PERICENTER = 269.9430
MEAN_ANOMALY   = 90.1116

EPHEMERIS_TYPE = 0
CLASSIFICATION_TYPE = U
NORAD_CAT_ID   = 23405
ELEMENT_SET_NO = 999
REV_AT_EPOCH   = 60645
BSTAR          = -.89638113E-4
MEAN_MOTION_DOT = -.223E-5
MEAN_MOTION_DDOT = 0

CCSDS_OMM_VERS = 2.0
CREATION_DATE  = 
ORIGINATOR     = 

OBJECT_NAME    = ARIANE 40+ R/B
OBJECT_ID      = 1995-021B
CENTER_NAME    = EARTH
REF_FRAME      = TEME
TIME_SYSTEM    = UTC
MEAN_ELEMENT_THEORY = SGP/SGP4

EPOCH          = 2025-12-30T10:46:38.563680
MEAN_MOTION    = 14.39710589
ECCENTRICITY   = .00065354
INCLINATION    = 98.4629
RA_OF_ASC_NODE = 71.8225
ARG_OF_PERICENTER = 359.1458
MEAN_ANOMALY   = 11.4179

EPHEMERIS_TYPE = 0
CLASSIFICATION_TYPE = U
NORAD_CAT_ID   = 23561
ELEMENT_SET_NO = 999
REV_AT_EPOCH   = 60928
BSTAR          = .18884277E-3
MEAN_MOTION_DOT = .548E-5
MEAN_MOTION_DDOT = 0

CCSDS_OMM_VERS = 2.0
CREATION_DATE  = 
ORIGINATOR     = 

OBJECT_NAME    = SL-16 R/B
OBJECT_ID      = 1995-058B
CENTER_NAME    = EARTH
REF_FRAME      = TEME
TIME_SYSTEM    = UTC
MEAN_ELEMENT_THEORY = SGP/SGP4

EPOCH          = 2025-12-30T07:22:46.824096
MEAN_MOTION    = 14.15482003
ECCENTRICITY   = .00143977
INCLINATION    = 71.0220
RA_OF_ASC_NODE = 325.9202
ARG_OF_PERICENTER = 231.6648
MEAN_ANOMALY   = 128.3182

EPHEMERIS_TYPE = 0
CLASSIFICATION_TYPE = U
NORAD_CAT_ID   = 23705
ELEMENT_SET_NO = 999
REV_AT_EPOCH   = 55803
BSTAR          = .97106652E-4
MEAN_MOTION_DOT = .142E-5
MEAN_MOTION_DDOT = 0

CCSDS_OMM_VERS = 2.0
CREATION_DATE  = 
ORIGINATOR     = 

OBJECT_NAME    = SL-16 R/B
OBJECT_ID      = 1996-051B
CENTER_NAME    = EARTH
REF_FRAME      = TEME
TIME_SYSTEM    = UTC
MEAN_ELEMENT_THEORY = SGP/SGP4

EPOCH          = 2025-12-30T08:03:32.530752
MEAN_MOTION    = 14.12398484
ECCENTRICITY   = .00194287
INCLINATION    = 70.7598
RA_OF_ASC_NODE = 322.0376
ARG_OF_PERICENTER = 239.7560
MEAN_ANOMALY   = 120.1637

EPHEMERIS_TYPE = 0
CLASSIFICATION_TYPE = U
NORAD_CAT_ID   = 24298
ELEMENT_SET_NO = 999
REV_AT_EPOCH   = 51185
BSTAR          = .49570072E-4
MEAN_MOTION_DOT = .42E-6
MEAN_MOTION_DDOT = 0

CCSDS_OMM_VERS = 2.0
CREATION_DATE  = 
ORIGINATOR     = 

OBJECT_NAME    = ORBVIEW 2 (SEASTAR)
OBJECT_ID      = 1997-037A
CENTER_NAME    = EARTH
REF_FRAME      = TEME
TIME_SYSTEM    = UTC
MEAN_ELEMENT_THEORY = SGP/SGP4

EPOCH          = 2025-12-30T09:52:24.112416
MEAN_MOTION    = 14.35431722
ECCENTRICITY   = .00012445
INCLINATION    = 98.8468
RA_OF_ASC_NODE = 161.9320
ARG_OF_PERICENTER = 259.3726
MEAN_ANOMALY   = 100.7318

EPHEMERIS_TYPE = 0
CLASSIFICATION_TYPE = U
NORAD_CAT_ID   = 24883
ELEMENT_SET_NO = 999
REV_AT_EPOCH   = 49853
BSTAR          = .21530588E-3
MEAN_MOTION_DOT = .572E-5
MEAN_MOTION_DDOT = 0

