SL-16 R/B               
1 22566U 93016B   25364.44532609  .00000087  00000+0  69173-4 0  9997
2 22566  71.0087   0.6155 0008052  61.9475 298.2461 14.15295271692376
COSMOS 2242             
1 22626U 93024A   25364.42594372  .00003439  00000+0  30219-3 0  9998
2 22626  82.5192 332.9389 0016425 172.0697 188.0788 14.96189752770033
SL-16 R/B               
1 22803U 93059B   25364.58935672  .00000119  00000+0  82687-4 0  9991
2 22803  70.9897 156.8460 0018919 310.4961  49.4513 14.17219032669747
ARIANE 40 R/B           
1 22830U 93061H   25364.63522609  .00000470  00000+0  18820-3 0  9999
2 22830  98.5052  69.8376 0011687 125.9882 234.2388 14.32814821684218
COSMOS 2278             
1 23087U 94023A   25364.57081489  .00000353  00000+0  20898-3 0  9990
2 23087  71.0539 319.7041 0007586 147.1947 212.9648 14.14351542635030
SL-16 R/B               
1 23088U 94023B   25364.64869223  .00000001  00000+0  25366-4 0  9995
2 23088  70.9971 215.8769 0002350 358.9834   1.1284 14.14998563636320
SL-16 R/B               
1 23343U 94074B   25364.61123317  .00000855  00000+0  12144-3 0  9995
2 23343  97.7186  33.2039 0008059  87.3102  35.2579 14.79312543677031
SL-16 R/B               
1 23405U 94077B   25364.58656836 -.00000223  00000+0 -89638-4 0  9994
2 23405  70.9826 137.8691 0005032 269.9430  90.1116 14.15550631606456
ARIANE 40+ R/B          
1 23561U 95021B   25364.44905745  .00000548  00000+0  18884-3 0  9990
2 23561  98.4629  71.8225 0006535 359.1458  11.4179 14.39710589609281
SL-16 R/B               
1 23705U 95058B   25364.30748639  .00000142  00000+0  97107-4 0  9998
2 23705  71.0220 325.9202 0014397 231.6648 128.3182 14.15482003558032
SL-16 R/B               
1 24298U 96051B   25364.33579318  .00000042  00000+0  49570-4 0  9999
2 24298  70.7598 322.0376 0019428 239.7560 120.1637 14.12398484511856
ORBVIEW 2 (SEASTAR)     
1 24883U 97037A   25364.41139019  .00000572  00000+0  21531-3 0  9997
2 24883  98.8468 161.9320 0001244 259.3726 100.7318 14.35431722498538
